0 DELTA 2 R/B(1)
1 27665U 03005C   13282.19002326 -.00000085  00000-0  99417-7 0  8623
2 27665 039.5749 127.4853 0008979 166.8835 291.5310 14.28080493558294
0 DELTA 2 R/B(1)
1 27665U 03005C   13283.79286174 -.00000067  00000-0  72098-5 0  8630
2 27665 039.5750 119.3285 0009095 176.7270 252.4426 14.28080550558522
0 DELTA 2 R/B(1)
1 27665U 03005C   13285.97292326 -.00000004  00000-0  32212-4 0  8654
2 27665 039.5752 108.2339 0009327 189.8108 301.4248 14.28080185558839
0 DELTA 2 R/B(1)
1 27665U 03005C   13287.08428369  .00000058  00000-0  57028-4 0  8667
2 27665 039.5754 102.5781 0009467 196.4433 255.6220 14.28080032558997
0 DELTA 2 R/B(1)
1 27665U 03005C   13288.47237698  .00000179  00000-0  10515-3 0  8678
2 27665 039.5757 095.5142 0009621 204.6241 192.7789 14.28080121559196
0 DELTA 2 R/B(1)
1 27665U 03005C   13289.52341451  .00000164  00000-0  99254-4 0  8681
2 27665 039.5759 090.1656 0009678 210.7948 196.9195 14.28080424559343
0 DELTA 2 R/B(1)
1 27665U 03005C   13290.65336817  .00000231  00000-0  12564-3 0  8691
2 27665 039.5762 084.4155 0009701 217.4456 246.8099 14.28080921559500
0 DELTA 2 R/B(1)
1 27665U 03005C   13291.84621159  .00000234  00000-0  12700-3 0  8706
2 27665 039.5765 078.3456 0009727 224.4708 260.0568 14.28081610559678
0 DELTA 2 R/B(1)
1 27665U 03005C   13292.90038749  .00000217  00000-0  12022-3 0  8710
2 27665 039.5769 072.9812 0009762 230.5843 280.4127 14.28082474559828
0 DELTA 2 R/B(1)
1 27665U 03005C   13294.85645927  .00000130  00000-0  85779-4 0  8723
2 27665 039.5769 063.0272 0009830 241.9040 258.1623 14.28084511560100
